{
  "norad_id": 56012,
  "name": "STARLINK-5940",
  "history": [
    {
      "epoch": "2026-03-28T20:34:03.941184Z",
      "apogee_km": 486.55079580457186,
      "perigee_km": 484.5533250142107,
      "latitude_deg": 5.2315217511945815e-05,
      "longitude_deg": 161.62071033107685,
      "height_km": 485.56256225475965,
      "semi_major_axis_km": 6863.689060409391,
      "eccentricity": 0.00014551,
      "inclination_deg": 43.0016,
      "raan_deg": 296.4085,
      "arg_perigee_deg": 256.4755,
      "mean_anomaly_deg": 103.5935,
      "mean_motion_rev_day": 15.26744488
    },
    {
      "epoch": "2026-03-28T23:42:28.860192Z",
      "apogee_km": 486.5458085506898,
      "perigee_km": 484.5553391542726,
      "latitude_deg": 2.4838895578303888e-05,
      "longitude_deg": 113.64998607806913,
      "height_km": 485.5560898216982,
      "semi_major_axis_km": 6863.68757385248,
      "eccentricity": 0.000145,
      "inclination_deg": 43.0015,
      "raan_deg": 295.6706,
      "arg_perigee_deg": 256.7215,
      "mean_anomaly_deg": 103.3475,
      "mean_motion_rev_day": 15.26744984
    },
    {
      "epoch": "2026-03-29T23:15:36.025344Z",
      "apogee_km": 486.4583484637942,
      "perigee_km": 484.62986381711835,
      "latitude_deg": 3.600468423291672e-05,
      "longitude_deg": 113.86799780093571,
      "height_km": 485.49452090607826,
      "semi_major_axis_km": 6863.681106140456,
      "eccentricity": 0.0001332,
      "inclination_deg": 43.0008,
      "raan_deg": 290.1357,
      "arg_perigee_deg": 259.051,
      "mean_anomaly_deg": 101.0192,
      "mean_motion_rev_day": 15.26747142
    },
    {
      "epoch": "2026-03-29T23:15:36.026208Z",
      "apogee_km": 486.4584171006054,
      "perigee_km": 484.62979518030716,
      "latitude_deg": 3.677637992463343e-05,
      "longitude_deg": 113.86799501402673,
      "height_km": 485.4945339409143,
      "semi_major_axis_km": 6863.681106140456,
      "eccentricity": 0.00013321,
      "inclination_deg": 43.0008,
      "raan_deg": 290.1357,
      "arg_perigee_deg": 259.051,
      "mean_anomaly_deg": 101.0192,
      "mean_motion_rev_day": 15.26747142
    },
    {
      "epoch": "2026-03-30T13:23:28.430016Z",
      "apogee_km": 486.4859675134867,
      "perigee_km": 484.62522045125843,
      "latitude_deg": -2.9867266884973425e-05,
      "longitude_deg": -102.00197331357317,
      "height_km": 485.45889531716546,
      "semi_major_axis_km": 6863.692593982372,
      "eccentricity": 0.00013555,
      "inclination_deg": 43.0008,
      "raan_deg": 286.8145,
      "arg_perigee_deg": 262.1861,
      "mean_anomaly_deg": 97.8836,
      "mean_motion_rev_day": 15.26743309
    },
    {
      "epoch": "2026-03-30T19:40:18.336288Z",
      "apogee_km": 486.49473976778245,
      "perigee_km": 484.6145000854194,
      "latitude_deg": -3.0904757698528934e-05,
      "longitude_deg": 162.0562509004194,
      "height_km": 485.44186086752035,
      "semi_major_axis_km": 6863.691619926601,
      "eccentricity": 0.00013697,
      "inclination_deg": 43.0009,
      "raan_deg": 285.3386,
      "arg_perigee_deg": 263.256,
      "mean_anomaly_deg": 96.8135,
      "mean_motion_rev_day": 15.26743634
    },
    {
      "epoch": "2026-03-31T20:47:38.133312Z",
      "apogee_km": 486.499277136405,
      "perigee_km": 484.6199969971767,
      "latitude_deg": -2.0717170096605195e-05,
      "longitude_deg": 138.28714489889234,
      "height_km": 485.4351342535905,
      "semi_major_axis_km": 6863.696637066791,
      "eccentricity": 0.0001369,
      "inclination_deg": 43.0004,
      "raan_deg": 279.4337,
      "arg_perigee_deg": 263.9698,
      "mean_anomaly_deg": 96.0997,
      "mean_motion_rev_day": 15.2674196
    },
    {
      "epoch": "2026-04-01T18:46:32.937888Z",
      "apogee_km": 486.50701011192814,
      "perigee_km": 484.6140023397111,
      "latitude_deg": 3.454943941375363e-05,
      "longitude_deg": 162.4899884383519,
      "height_km": 485.3868482916856,
      "semi_major_axis_km": 6863.69750622582,
      "eccentricity": 0.0001379,
      "inclination_deg": 43.0005,
      "raan_deg": 274.2676,
      "arg_perigee_deg": 267.0003,
      "mean_anomaly_deg": 93.0691,
      "mean_motion_rev_day": 15.2674167
    },
    {
      "epoch": "2026-04-02T19:53:52.073088Z",
      "apogee_km": 486.56142789334353,
      "perigee_km": 484.51687604119434,
      "latitude_deg": 2.403513171700852e-05,
      "longitude_deg": 138.72332493146538,
      "height_km": 485.32208827132393,
      "semi_major_axis_km": 6863.676151967268,
      "eccentricity": 0.00014894,
      "inclination_deg": 43.002,
      "raan_deg": 268.3624,
      "arg_perigee_deg": 269.6716,
      "mean_anomaly_deg": 90.3965,
      "mean_motion_rev_day": 15.26748795
    },
    {
      "epoch": "2026-04-03T19:26:59.272800Z",
      "apogee_km": 486.52569921881695,
      "perigee_km": 484.5571962400081,
      "latitude_deg": -1.1091431750902575e-05,
      "longitude_deg": 138.9415424639982,
      "height_km": 485.43588987507457,
      "semi_major_axis_km": 6863.678447729412,
      "eccentricity": 0.0001434,
      "inclination_deg": 42.9999,
      "raan_deg": 262.8279,
      "arg_perigee_deg": 263.134,
      "mean_anomaly_deg": 96.9348,
      "mean_motion_rev_day": 15.26748029
    },
    {
      "epoch": "2026-04-04T11:09:04.371552Z",
      "apogee_km": 486.52697287809497,
      "perigee_km": 484.58523409911777,
      "latitude_deg": 1.9554292810901605e-06,
      "longitude_deg": -100.91582313312155,
      "height_km": 485.5886626387335,
      "semi_major_axis_km": 6863.693103488606,
      "eccentricity": 0.00014145,
      "inclination_deg": 42.9998,
      "raan_deg": 259.1366,
      "arg_perigee_deg": 254.7198,
      "mean_anomaly_deg": 105.3497,
      "mean_motion_rev_day": 15.26743139
    },
    {
      "epoch": "2026-04-05T12:16:03.339264Z",
      "apogee_km": 486.64224244179604,
      "perigee_km": 484.12854600013634,
      "latitude_deg": -3.452007564999214e-05,
      "longitude_deg": -124.59815532752583,
      "height_km": 484.33958130593135,
      "semi_major_axis_km": 6863.522394220966,
      "eccentricity": 0.00018312,
      "inclination_deg": 42.9999,
      "raan_deg": 253.2315,
      "arg_perigee_deg": 310.8866,
      "mean_anomaly_deg": 49.1826,
      "mean_motion_rev_day": 15.26800099
    },
    {
      "epoch": "2026-04-05T18:33:14.804064Z",
      "apogee_km": 486.5416927882907,
      "perigee_km": 484.6304204659409,
      "latitude_deg": 4.1720001161058175e-05,
      "longitude_deg": 139.37167738976686,
      "height_km": 485.5355742524153,
      "semi_major_axis_km": 6863.7230566271155,
      "eccentricity": 0.00013923,
      "inclination_deg": 42.9995,
      "raan_deg": 251.7572,
      "arg_perigee_deg": 259.5798,
      "mean_anomaly_deg": 100.4897,
      "mean_motion_rev_day": 15.26733145
    },
    {
      "epoch": "2026-04-07T11:22:38.684640Z",
      "apogee_km": 486.54992482863054,
      "perigee_km": 484.5355720960515,
      "latitude_deg": 1.6276604912691984e-05,
      "longitude_deg": -124.24840978680089,
      "height_km": 485.40500348116075,
      "semi_major_axis_km": 6863.679748462341,
      "eccentricity": 0.00014674,
      "inclination_deg": 43.0004,
      "raan_deg": 242.1632,
      "arg_perigee_deg": 265.1366,
      "mean_anomaly_deg": 94.9318,
      "mean_motion_rev_day": 15.26747595
    },
    {
      "epoch": "2026-04-07T16:05:15.995328Z",
      "apogee_km": 486.66056589100936,
      "perigee_km": 484.4202615831646,
      "latitude_deg": 4.8966697325223774e-05,
      "longitude_deg": 163.79611551979292,
      "height_km": 485.3130722022095,
      "semi_major_axis_km": 6863.677413737087,
      "eccentricity": 0.0001632,
      "inclination_deg": 43.0008,
      "raan_deg": 241.0566,
      "arg_perigee_deg": 270.225,
      "mean_anomaly_deg": 89.8415,
      "mean_motion_rev_day": 15.26748374
    },
    {
      "epoch": "2026-04-08T15:38:23.724672Z",
      "apogee_km": 486.8015528826545,
      "perigee_km": 484.3184045896869,
      "latitude_deg": -4.115806689204175e-06,
      "longitude_deg": 164.01109802373128,
      "height_km": 485.3090330447371,
      "semi_major_axis_km": 6863.69697873617,
      "eccentricity": 0.00018089,
      "inclination_deg": 43.0008,
      "raan_deg": 235.5211,
      "arg_perigee_deg": 271.2992,
      "mean_anomaly_deg": 88.7652,
      "mean_motion_rev_day": 15.26741846
    },
    {
      "epoch": "2026-04-09T15:11:30.460416Z",
      "apogee_km": 486.9119602478877,
      "perigee_km": 484.18158684277114,
      "latitude_deg": 3.196104670367861e-05,
      "longitude_deg": 164.2319270043902,
      "height_km": 485.1861779304641,
      "semi_major_axis_km": 6863.683773545329,
      "eccentricity": 0.0001989,
      "inclination_deg": 43.0018,
      "raan_deg": 229.9872,
      "arg_perigee_deg": 275.8039,
      "mean_anomaly_deg": 84.2586,
      "mean_motion_rev_day": 15.26746252
    },
    {
      "epoch": "2026-04-10T08:27:47.877408Z",
      "apogee_km": 486.83859536552336,
      "perigee_km": 484.27843693799787,
      "latitude_deg": 4.195864645960012e-06,
      "longitude_deg": -99.60849080719343,
      "height_km": 485.19260552525805,
      "semi_major_axis_km": 6863.69551615176,
      "eccentricity": 0.0001865,
      "inclination_deg": 43.0031,
      "raan_deg": 225.9287,
      "arg_perigee_deg": 276.433,
      "mean_anomaly_deg": 83.6309,
      "mean_motion_rev_day": 15.26742334
    },
    {
      "epoch": "2026-04-11T15:51:57.775968Z",
      "apogee_km": 486.60562025116906,
      "perigee_km": 484.5286633778569,
      "latitude_deg": 3.7075005314296977e-06,
      "longitude_deg": 140.68069699925508,
      "height_km": 485.3571486584952,
      "semi_major_axis_km": 6863.704141814513,
      "eccentricity": 0.0001513,
      "inclination_deg": 43.0015,
      "raan_deg": 218.5488,
      "arg_perigee_deg": 269.2847,
      "mean_anomaly_deg": 90.7831,
      "mean_motion_rev_day": 15.26739456
    }
  ]
}